NORAD_CAT_ID,OBJECT_NAME,OBJECT_TYPE,EPOCH,MEAN_MOTION,ECCENTRICITY,INCLINATION,RA_OF_ASC_NODE,ARG_OF_PERICENTER,MEAN_ANOMALY,BSTAR,MEAN_MOTION_DOT,MEAN_MOTION_DDOT,TLE_LINE0,TLE_LINE1,TLE_LINE2,SEMIMAJOR_AXIS,PERIOD,APOGEE,PERIGEE,DECAYED
52303.0,STARLINK-3742,PAYLOAD,2023-03-22 20:02:13,15.08850419,0.0001329,53.214,280.2456,81.9159,278.1984,0.00026182,3.883e-05,0.0,0 STARLINK-3742,1 52303U 22041AU  23081.83487428  .00003883  00000-0  26182-3 0  9994,2 52303  53.2140 280.2456 0001329  81.9159 278.1984 15.08850419 52259,6917.849,95.437,540.633,538.794,0.0
52303.0,STARLINK-3742,PAYLOAD,2023-03-23 11:56:04,15.0883407,0.0001495,53.2149,277.2719,91.978,268.1384,0.000311,4.664e-05,0.0,0 STARLINK-3742,1 52303U 22041AU  23082.49727703  .00004664  00000-0  31100-3 0  9994,2 52303  53.2149 277.2719 0001495  91.9780 268.1384 15.08834070 52350,6917.899,95.438,540.798,538.729,0.0
52303.0,STARLINK-3742,PAYLOAD,2023-03-23 19:53:00,15.08853998,0.000135,53.214,275.7857,91.4706,268.644,0.00075554,0.00011761,0.0,0 STARLINK-3742,1 52303U 22041AU  23082.82847392  .00011761  00000-0  75554-3 0  9995,2 52303  53.2140 275.7857 0001350  91.4706 268.6440 15.08853998 52404,6917.838,95.437,540.637,538.769,0.0
52303.0,STARLINK-3742,PAYLOAD,2023-03-24 05:25:18,15.08881157,0.0001288,53.2138,274.0018,94.7262,265.3878,0.0020361,0.00032302,0.0,0 STARLINK-3742,1 52303U 22041AU  23083.22591208  .00032302  00000-0  20361-2 0  9991,2 52303  53.2138 274.0018 0001288  94.7262 265.3878 15.08881157 52468,6917.755,95.435,540.511,538.729,0.0
52303.0,STARLINK-3742,PAYLOAD,2023-03-24 16:32:59,15.08876701,0.00011,53.2138,271.9189,93.6937,266.4181,0.0010138,0.000159,0.0,0 STARLINK-3742,1 52303U 22041AU  23083.68958175  .00015900  00000-0  10138-2 0  9997,2 52303  53.2138 271.9189 0001100  93.6937 266.4181 15.08876701 52539,6917.768,95.435,540.394,538.872,0.0
52303.0,STARLINK-3742,PAYLOAD,2023-03-24 21:19:08,15.08885048,0.0001251,53.2136,271.0271,97.5928,262.5206,0.0010056,0.00015772,0.0,0 STARLINK-3742,1 52303U 22041AU  23083.88829525  .00015772  00000-0  10056-2 0  9991,2 52303  53.2136 271.0271 0001251  97.5928 262.5206 15.08885048 52562,6917.743,95.435,540.473,538.742,0.0
52303.0,STARLINK-3742,PAYLOAD,2023-03-25 11:37:38,15.08811153,0.0001831,53.2142,268.3524,105.1563,254.9632,-0.00091537,-0.00014815,0.0,0 STARLINK-3742,1 52303U 22041AU  23084.48447252 -.00014815  00000-0 -91537-3 0  9994,2 52303  53.2142 268.3524 0001831 105.1563 254.9632 15.08811153 52658,6917.969,95.439,541.1,538.567,0.0
52303.0,STARLINK-3742,PAYLOAD,2023-03-25 19:34:35,15.08789802,0.0001228,53.2147,266.8646,117.1377,242.974,-0.00054385,-8.921e-05,0.0,0 STARLINK-3742,1 52303U 22041AU  23084.81568631 -.00008921  00000-0 -54385-3 0  9997,2 52303  53.2147 266.8646 0001228 117.1377 242.9740 15.08789802 52705,6918.034,95.441,540.748,539.049,0.0
52303.0,STARLINK-3742,PAYLOAD,2023-03-26 11:28:28,15.08833461,0.0001177,53.2143,263.89,130.4221,229.6874,0.0024211,0.00038447,0.0,0 STARLINK-3742,1 52303U 22041AU  23085.47810191  .00038447  00000-0  24211-2 0  9999,2 52303  53.2143 263.8900 0001177 130.4221 229.6874 15.08833461 52802,6917.9,95.438,540.58,538.951,0.0
52303.0,STARLINK-3742,PAYLOAD,2023-03-26 19:25:23,15.08861475,0.0001101,53.2146,262.403,129.4868,230.6222,0.0024406,0.00038791,0.0,0 STARLINK-3742,1 52303U 22041AU  23085.80929913  .00038791  00000-0  24406-2 0  9997,2 52303  53.2146 262.4030 0001101 129.4868 230.6222 15.08861475 52856,6917.815,95.436,540.441,538.918,0.0
52303.0,STARLINK-3742,PAYLOAD,2023-03-27 11:19:14,15.08868153,0.0001141,53.2132,259.4305,117.284,242.8269,0.0013318,0.00020987,0.0,0 STARLINK-3742,1 52303U 22041AU  23086.47169139  .00020987  00000-0  13318-2 0  9995,2 52303  53.2132 259.4305 0001141 117.2840 242.8269 15.08868153 52958,6917.794,95.436,540.449,538.87,0.0
52303.0,STARLINK-3742,PAYLOAD,2023-03-27 20:51:32,15.08880751,0.0001112,53.2137,257.6449,119.8825,240.2278,0.0010691,0.00016787,0.0,0 STARLINK-3742,1 52303U 22041AU  23086.86912153  .00016787  00000-0  10691-2 0  9994,2 52303  53.2137 257.6449 0001112 119.8825 240.2278 15.08880751 53019,6917.756,95.435,540.39,538.852,0.0
52303.0,STARLINK-3742,PAYLOAD,2023-03-28 04:48:27,15.08861331,0.0001,53.2138,256.1601,77.9033,282.2071,0.00015729,2.218e-05,0.0,0 STARLINK-3742,1 52303U 22041AU  23087.20032208  .00002218  00000-0  15729-3 0  9999,2 52303  53.2138 256.1601 0001000  77.9033 282.2071 15.08861331 53060,6917.815,95.436,540.372,538.988,0.0
52303.0,STARLINK-3742,PAYLOAD,2023-03-28 11:10:00,15.08856963,0.0001348,53.2142,254.97,88.5966,271.518,0.00017764,2.542e-05,0.0,0 STARLINK-3742,1 52303U 22041AU  23087.46528206  .00002542  00000-0  17764-3 0  9996,2 52303  53.2142 254.9700 0001348  88.5966 271.5180 15.08856963 53101,6917.829,95.436,540.626,538.761,0.0
52303.0,STARLINK-3742,PAYLOAD,2023-03-28 17:31:32,15.0885296,7.65e-05,53.2147,253.7803,90.7253,269.3827,8.3444e-05,1.041e-05,0.0,0 STARLINK-3742,1 52303U 22041AU  23087.73024057  .00001041  00000-0  83444-4 0  9993,2 52303  53.2147 253.7803 0000765  90.7253 269.3827 15.08852960 53143,6917.841,95.437,540.235,539.177,0.0
52303.0,STARLINK-3742,PAYLOAD,2023-03-29 11:00:47,15.08844111,6.6e-05,53.2149,250.51,75.5081,284.5984,0.00023281,3.42e-05,0.0,0 STARLINK-3742,1 52303U 22041AU  23088.45888252  .00003420  00000-0  23281-3 0  9993,2 52303  53.2149 250.5100 0000660  75.5081 284.5984 15.08844111 53258,6917.868,95.437,540.189,539.276,0.0
52303.0,STARLINK-3742,PAYLOAD,2023-03-29 17:22:19,15.08851309,7.51e-05,53.2134,249.3196,69.7702,290.337,0.00019049,2.746e-05,0.0,0 STARLINK-3742,1 52303U 22041AU  23088.72384054  .00002746  00000-0  19049-3 0  9991,2 52303  53.2134 249.3196 0000751  69.7702 290.3370 15.08851309 53294,6917.846,95.437,540.23,539.191,0.0
52303.0,STARLINK-3742,PAYLOAD,2023-03-30 10:51:34,15.08842286,0.000101,53.2145,246.0483,65.765,294.3448,0.0002146,3.129e-05,0.0,0 STARLINK-3742,1 52303U 22041AU  23089.45248467  .00003129  00000-0  21460-3 0  9995,2 52303  53.2145 246.0483 0001010  65.7650 294.3448 15.08842286 53403,6917.873,95.437,540.437,539.04,0.0
52303.0,STARLINK-3742,PAYLOAD,2023-03-30 17:13:06,15.08851573,0.0001095,53.2148,244.8578,76.8942,283.2173,0.00028937,4.322e-05,0.0,0 STARLINK-3742,1 52303U 22041AU  23089.71743966  .00004322  00000-0  28937-3 0  9990,2 52303  53.2148 244.8578 0001095  76.8942 283.2173 15.08851573 53442,6917.845,95.437,540.468,538.953,0.0
52303.0,STARLINK-3742,PAYLOAD,2023-03-31 17:03:53,15.08844903,0.0001264,53.2152,240.3986,85.6671,274.4465,8.8337e-05,1.118e-05,0.0,0 STARLINK-3742,1 52303U 22041AU  23090.71104048  .00001118  00000-0  88337-4 0  9995,2 52303  53.2152 240.3986 0001264  85.6671 274.4465 15.08844903 53597,6917.865,95.437,540.605,538.856,0.0
52303.0,STARLINK-3742,PAYLOAD,2023-04-01 12:08:32,15.08829828,0.0001154,53.215,236.8294,89.1881,270.9243,-8.2312e-05,-1.597e-05,0.0,0 STARLINK-3742,1 52303U 22041AU  23091.50593012 -.00001597  00000-0 -82312-4 0  9996,2 52303  53.2150 236.8294 0001154  89.1881 270.9243 15.08829828 53715,6917.911,95.438,540.575,538.978,0.0
52303.0,STARLINK-3742,PAYLOAD,2023-04-01 16:54:42,15.088326,0.0001159,53.2165,235.9376,86.576,273.5365,6.2373e-06,-1.89e-06,0.0,0 STARLINK-3742,1 52303U 22041AU  23091.70465423 -.00000189  00000-0  62373-5 0  9993,2 52303  53.2165 235.9376 0001159  86.5760 273.5365 15.08832600 53743,6917.903,95.438,540.57,538.966,0.0
52303.0,STARLINK-3742,PAYLOAD,2023-04-02 13:34:42,15.08845617,0.0001259,53.2161,232.0716,94.4992,265.6144,0.00015061,2.11e-05,0.0,0 STARLINK-3742,1 52303U 22041AU  23092.56576502  .00002110  00000-0  15061-3 0  9994,2 52303  53.2161 232.0716 0001259  94.4992 265.6144 15.08845617 53874,6917.863,95.437,540.599,538.857,0.0
52303.0,STARLINK-3742,PAYLOAD,2023-04-02 18:20:51,15.08855952,0.0001302,53.2149,231.1788,87.6699,272.4442,0.00032605,4.907e-05,0.0,0 STARLINK-3742,1 52303U 22041AU  23092.76448049  .00004907  00000-0  32605-3 0  9999,2 52303  53.2149 231.1788 0001302  87.6699 272.4442 15.08855952 53900,6917.832,95.437,540.597,538.796,0.0
52303.0,STARLINK-3742,PAYLOAD,2023-04-03 10:14:41,15.08863327,0.0001203,53.214,228.2038,94.1763,265.9366,0.00045379,6.946e-05,0.0,0 STARLINK-3742,1 52303U 22041AU  23093.42687382  .00006946  00000-0  45379-3 0  9995,2 52303  53.2140 228.2038 0001203  94.1763 265.9366 15.08863327 54000,6917.809,95.436,540.506,538.842,0.0
52303.0,STARLINK-3742,PAYLOAD,2023-04-04 02:08:34,15.08847881,0.0001541,53.2149,225.2321,84.3782,275.7386,0.000198,2.865e-05,0.0,0 STARLINK-3742,1 52303U 22041AU  23094.08928629  .00002865  00000-0  19800-3 0  9996,2 52303  53.2149 225.2321 0001541  84.3782 275.7386 15.08847881 54107,6917.856,95.437,540.787,538.655,0.0
52303.0,STARLINK-3742,PAYLOAD,2023-04-04 08:30:07,15.08846657,0.0002291,53.212,224.0448,81.7834,278.3418,5.2801e-05,5.52e-06,0.0,0 STARLINK-3742,1 52303U 22041AU  23094.35424838  .00000552  00000-0  52801-4 0  9999,2 52303  53.2120 224.0448 0002291  81.7834 278.3418 15.08846657 54144,6917.86,95.437,541.31,538.14,0.0
52303.0,STARLINK-3742,PAYLOAD,2023-04-05 13:07:04,15.08832313,0.0001356,53.2157,218.6916,85.1711,274.9436,0.00025559,3.781e-05,0.0,0 STARLINK-3742,1 52303U 22041AU  23095.54657625  .00003781  00000-0  25559-3 0  9999,2 52303  53.2157 218.6916 0001356  85.1711 274.9436 15.08832313 54322,6917.904,95.438,540.707,538.831,0.0
52303.0,STARLINK-3742,PAYLOAD,2023-04-05 14:42:27,15.08834146,0.0001367,53.2156,218.394,85.5329,274.5819,0.00028533,4.255e-05,0.0,0 STARLINK-3742,1 52303U 22041AU  23095.61281593  .00004255  00000-0  28533-3 0  9996,2 52303  53.2156 218.3940 0001367  85.5329 274.5819 15.08834146 54334,6917.898,95.438,540.709,538.818,0.0
52303.0,STARLINK-3742,PAYLOAD,2023-04-06 11:22:28,15.08838847,0.0001237,53.215,214.5273,91.7568,268.3566,0.00023491,3.453e-05,0.0,0 STARLINK-3742,1 52303U 22041AU  23096.47393668  .00003453  00000-0  23491-3 0  9995,2 52303  53.2150 214.5273 0001237  91.7568 268.3566 15.08838847 54461,6917.884,95.438,540.605,538.893,0.0
